{"type":"Topology","bbox":[122.93816165500004,24.212103583000044,153.98560631600003,45.520412502000056],"objects":{"subunits":{"type":"GeometryCollection","geometries":[{"type":"MultiPolygon","arcs":[[[0]],[[1]],[[2]],[[3]],[[4]],[[5]],[[6]],[[7]],[[8]],[[9]],[[10]],[[11]],[[12]],[[13]],[[14]],[[15]],[[16]],[[17]],[[18]],[[19]],[[20]],[[21]],[[22]],[[23]],[[24]],[[25]],[[26]],[[27]],[[28]],[[29]],[[30]],[[31]],[[32]],[[33]],[[34]],[[35]],[[36]],[[37]],[[38]],[[39]],[[40]],[[41]],[[42]],[[43]],[[44]],[[45]],[[46]],[[47]],[[48]],[[49]],[[50]],[[51]],[[52]],[[53]],[[54]],[[55]],[[56]],[[57]],[[58]],[[59]],[[60]],[[61]],[[62]]],"properties":{"featurecla":"Admin-0 map subunit","scalerank":5,"LABELRANK":2,"SOVEREIGNT":"Japan","SOV_A3":"JPN","ADM0_DIF":0,"LEVEL":4,"TYPE":"Geo subunit","ADMIN":"Japan","ADM0_A3":"JPN","GEOU_DIF":0,"GEOUNIT":"Japan","GU_A3":"JPN","SU_DIF":1,"SUBUNIT":"Japan","SU_A3":"JPX","BRK_DIFF":0,"NAME":"Japan","NAME_LONG":"Japan","BRK_A3":"JPX","BRK_NAME":"Japan","BRK_GROUP":null,"ABBREV":"Japan","POSTAL":"J","FORMAL_EN":null,"FORMAL_FR":null,"NAME_CIAWF":null,"NOTE_ADM0":null,"NOTE_BRK":null,"NAME_SORT":"Japan","NAME_ALT":null,"MAPCOLOR7":5,"MAPCOLOR8":3,"MAPCOLOR9":5,"MAPCOLOR13":4,"POP_EST":1264513.98,"POP_RANK":12,"GDP_MD_EST":49320,"POP_YEAR":2013,"LASTCENSUS":-99,"GDP_YEAR":2013,"ECONOMY":"1. Developed region: G7","INCOME_GRP":"1. High income: OECD","WIKIPEDIA":-99,"FIPS_10_":"-99","ISO_A2":"-99","ISO_A3":"-99","ISO_A3_EH":"-99","ISO_N3":"-99","UN_A3":"-099","WB_A2":"-99","WB_A3":"-99","WOE_ID":-99,"WOE_ID_EH":23424856,"WOE_NOTE":"No WOE equivalent.","ADM0_A3_IS":"JPN","ADM0_A3_US":"JPN","ADM0_A3_UN":-99,"ADM0_A3_WB":-99,"CONTINENT":"Asia","REGION_UN":"Asia","SUBREGION":"Eastern Asia","REGION_WB":"East Asia & Pacific","NAME_LEN":5,"LONG_LEN":5,"ABBREV_LEN":5,"TINY":-99,"HOMEPART":1,"MIN_ZOOM":0,"MIN_LABEL":2,"MAX_LABEL":7,"NE_ID":1159320955,"WIKIDATAID":"Q17","NAME_AR":"اليابان","NAME_BN":"জাপান","NAME_DE":"Japan","NAME_EN":"Japan","NAME_ES":"Japón","NAME_FR":"Japon","NAME_EL":"Ιαπωνία","NAME_HI":"जापान","NAME_HU":"Japán","NAME_ID":"Jepang","NAME_IT":"Giappone","NAME_JA":"日本","NAME_KO":"일본","NAME_NL":"Japan","NAME_PL":"Japonia","NAME_PT":"Japão","NAME_RU":"Япония","NAME_SV":"Japan","NAME_TR":"Japonya","NAME_VI":"Nhật Bản","NAME_ZH":"日本"}},{"type":"Polygon","arcs":[[63]],"properties":{"featurecla":"Admin-0 map subunit","scalerank":0,"LABELRANK":7,"SOVEREIGNT":"Japan","SOV_A3":"JPN","ADM0_DIF":0,"LEVEL":4,"TYPE":"Geo subunit","ADMIN":"Japan","ADM0_A3":"JPN","GEOU_DIF":0,"GEOUNIT":"Japan","GU_A3":"JPN","SU_DIF":1,"SUBUNIT":"Kyushu","SU_A3":"JPY","BRK_DIFF":0,"NAME":"Kyushu","NAME_LONG":"Kyushu","BRK_A3":"JPY","BRK_NAME":"Kyushu","BRK_GROUP":null,"ABBREV":"Kyu.","POSTAL":"KY","FORMAL_EN":null,"FORMAL_FR":null,"NAME_CIAWF":null,"NOTE_ADM0":"Japan","NOTE_BRK":null,"NAME_SORT":"Kyushu","NAME_ALT":null,"MAPCOLOR7":5,"MAPCOLOR8":3,"MAPCOLOR9":5,"MAPCOLOR13":4,"POP_EST":13231995,"POP_RANK":14,"GDP_MD_EST":516089.19,"POP_YEAR":2013,"LASTCENSUS":-99,"GDP_YEAR":2013,"ECONOMY":"1. Developed region: G7","INCOME_GRP":"1. High income: OECD","WIKIPEDIA":-99,"FIPS_10_":"-99","ISO_A2":"-99","ISO_A3":"-99","ISO_A3_EH":"-99","ISO_N3":"-99","UN_A3":"-099","WB_A2":"-99","WB_A3":"-99","WOE_ID":-99,"WOE_ID_EH":-99,"WOE_NOTE":"No WOE equivalent.","ADM0_A3_IS":"JPN","ADM0_A3_US":"JPN","ADM0_A3_UN":-99,"ADM0_A3_WB":-99,"CONTINENT":"Asia","REGION_UN":"Asia","SUBREGION":"Eastern Asia","REGION_WB":"East Asia & Pacific","NAME_LEN":6,"LONG_LEN":6,"ABBREV_LEN":4,"TINY":-99,"HOMEPART":1,"MIN_ZOOM":0,"MIN_LABEL":6,"MAX_LABEL":11,"NE_ID":1159320957,"WIKIDATAID":"Q13987","NAME_AR":"كيوشو","NAME_BN":"কিউশু","NAME_DE":"Kyūshū","NAME_EN":"Kyushu","NAME_ES":"Kyūshū","NAME_FR":"Kyūshū","NAME_EL":"Κιούσου","NAME_HI":"क्यूशू","NAME_HU":"Kjúsú","NAME_ID":"Kyushu","NAME_IT":"Kyūshū","NAME_JA":"九州","NAME_KO":"규슈","NAME_NL":"Kyushu","NAME_PL":"Kiusiu","NAME_PT":"Kyushu","NAME_RU":"Кюсю","NAME_SV":"Kyushu","NAME_TR":"Kyūshū","NAME_VI":"Kyushu","NAME_ZH":"九州"}},{"type":"Polygon","arcs":[[64]],"properties":{"featurecla":"Admin-0 map subunit","scalerank":1,"LABELRANK":7,"SOVEREIGNT":"Japan","SOV_A3":"JPN","ADM0_DIF":0,"LEVEL":4,"TYPE":"Geo subunit","ADMIN":"Japan","ADM0_A3":"JPN","GEOU_DIF":0,"GEOUNIT":"Japan","GU_A3":"JPN","SU_DIF":1,"SUBUNIT":"Shikoku","SU_A3":"JPS","BRK_DIFF":0,"NAME":"Shikoku","NAME_LONG":"Shikoku","BRK_A3":"JPS","BRK_NAME":"Shikoku","BRK_GROUP":null,"ABBREV":"Shi.","POSTAL":"SH","FORMAL_EN":null,"FORMAL_FR":null,"NAME_CIAWF":null,"NOTE_ADM0":"Japan","NOTE_BRK":null,"NAME_SORT":"Shikoku","NAME_ALT":null,"MAPCOLOR7":5,"MAPCOLOR8":3,"MAPCOLOR9":5,"MAPCOLOR13":4,"POP_EST":4141955,"POP_RANK":12,"GDP_MD_EST":161549.2,"POP_YEAR":2013,"LASTCENSUS":-99,"GDP_YEAR":2013,"ECONOMY":"1. Developed region: G7","INCOME_GRP":"1. High income: OECD","WIKIPEDIA":-99,"FIPS_10_":"-99","ISO_A2":"-99","ISO_A3":"-99","ISO_A3_EH":"-99","ISO_N3":"-99","UN_A3":"-099","WB_A2":"-99","WB_A3":"-99","WOE_ID":-99,"WOE_ID_EH":-99,"WOE_NOTE":"No WOE equivalent.","ADM0_A3_IS":"JPN","ADM0_A3_US":"JPN","ADM0_A3_UN":-99,"ADM0_A3_WB":-99,"CONTINENT":"Asia","REGION_UN":"Asia","SUBREGION":"Eastern Asia","REGION_WB":"East Asia & Pacific","NAME_LEN":7,"LONG_LEN":7,"ABBREV_LEN":4,"TINY":-99,"HOMEPART":1,"MIN_ZOOM":0,"MIN_LABEL":6,"MAX_LABEL":11,"NE_ID":1159320949,"WIKIDATAID":"Q13991","NAME_AR":"شيكوكو","NAME_BN":"শিকোকু","NAME_DE":"Shikoku","NAME_EN":"Shikoku","NAME_ES":"Shikoku","NAME_FR":"Shikoku","NAME_EL":"Σικόκου","NAME_HI":"शिकोकू","NAME_HU":"Sikoku","NAME_ID":"Shikoku","NAME_IT":"Shikoku","NAME_JA":"四国","NAME_KO":"시코쿠","NAME_NL":"Shikoku","NAME_PL":"Sikoku","NAME_PT":"Shikoku","NAME_RU":"Сикоку","NAME_SV":"Shikoku","NAME_TR":"Shikoku","NAME_VI":"Shikoku","NAME_ZH":"四國"}},{"type":"Polygon","arcs":[[65]],"properties":{"featurecla":"Admin-0 map subunit","scalerank":0,"LABELRANK":7,"SOVEREIGNT":"Japan","SOV_A3":"JPN","ADM0_DIF":0,"LEVEL":4,"TYPE":"Geo subunit","ADMIN":"Japan","ADM0_A3":"JPN","GEOU_DIF":0,"GEOUNIT":"Japan","GU_A3":"JPN","SU_DIF":1,"SUBUNIT":"Honshu","SU_A3":"JPH","BRK_DIFF":0,"NAME":"Honshu","NAME_LONG":"Honshu","BRK_A3":"JPH","BRK_NAME":"Honshu","BRK_GROUP":null,"ABBREV":"Hon.","POSTAL":"HN","FORMAL_EN":null,"FORMAL_FR":null,"NAME_CIAWF":null,"NOTE_ADM0":"Japan","NOTE_BRK":null,"NAME_SORT":"Honshu","NAME_ALT":null,"MAPCOLOR7":5,"MAPCOLOR8":3,"MAPCOLOR9":5,"MAPCOLOR13":4,"POP_EST":103000000,"POP_RANK":17,"GDP_MD_EST":4017322.13,"POP_YEAR":2013,"LASTCENSUS":-99,"GDP_YEAR":2013,"ECONOMY":"1. Developed region: G7","INCOME_GRP":"1. High income: OECD","WIKIPEDIA":-99,"FIPS_10_":"-99","ISO_A2":"-99","ISO_A3":"-99","ISO_A3_EH":"-99","ISO_N3":"-99","UN_A3":"-099","WB_A2":"-99","WB_A3":"-99","WOE_ID":-99,"WOE_ID_EH":-99,"WOE_NOTE":"No WOE equivalent.","ADM0_A3_IS":"JPN","ADM0_A3_US":"JPN","ADM0_A3_UN":-99,"ADM0_A3_WB":-99,"CONTINENT":"Asia","REGION_UN":"Asia","SUBREGION":"Eastern Asia","REGION_WB":"East Asia & Pacific","NAME_LEN":6,"LONG_LEN":6,"ABBREV_LEN":4,"TINY":-99,"HOMEPART":1,"MIN_ZOOM":0,"MIN_LABEL":6,"MAX_LABEL":11,"NE_ID":1159320941,"WIKIDATAID":"Q13989","NAME_AR":"هونشو","NAME_BN":"হোনশু","NAME_DE":"Honshū","NAME_EN":"Honshu","NAME_ES":"Honshū","NAME_FR":"Honshū","NAME_EL":"Χονσού","NAME_HI":"होन्शू","NAME_HU":"Honsú","NAME_ID":"Honshū","NAME_IT":"Honshū","NAME_JA":"本州","NAME_KO":"혼슈","NAME_NL":"Honshu","NAME_PL":"Honsiu","NAME_PT":"Honshu","NAME_RU":"Хонсю","NAME_SV":"Honshu","NAME_TR":"Honshū","NAME_VI":"Đảo Honshu","NAME_ZH":"本州"}},{"type":"Polygon","arcs":[[66]],"properties":{"featurecla":"Admin-0 map subunit","scalerank":0,"LABELRANK":7,"SOVEREIGNT":"Japan","SOV_A3":"JPN","ADM0_DIF":0,"LEVEL":4,"TYPE":"Geo subunit","ADMIN":"Japan","ADM0_A3":"JPN","GEOU_DIF":0,"GEOUNIT":"Japan","GU_A3":"JPN","SU_DIF":1,"SUBUNIT":"Hokkaido","SU_A3":"JPK","BRK_DIFF":0,"NAME":"Hokkaido","NAME_LONG":"Hokkaido","BRK_A3":"JPK","BRK_NAME":"Hokkaido","BRK_GROUP":null,"ABBREV":"Hok.","POSTAL":"HK","FORMAL_EN":null,"FORMAL_FR":null,"NAME_CIAWF":null,"NOTE_ADM0":"Japan","NOTE_BRK":null,"NAME_SORT":"Hokkaido","NAME_ALT":null,"MAPCOLOR7":5,"MAPCOLOR8":3,"MAPCOLOR9":5,"MAPCOLOR13":4,"POP_EST":5541598,"POP_RANK":13,"GDP_MD_EST":216139.65,"POP_YEAR":2013,"LASTCENSUS":-99,"GDP_YEAR":2013,"ECONOMY":"1. Developed region: G7","INCOME_GRP":"1. High income: OECD","WIKIPEDIA":-99,"FIPS_10_":"-99","ISO_A2":"-99","ISO_A3":"-99","ISO_A3_EH":"-99","ISO_N3":"-99","UN_A3":"-099","WB_A2":"-99","WB_A3":"-99","WOE_ID":7153351,"WOE_ID_EH":7153351,"WOE_NOTE":"WOE admin-1 (territory) match.","ADM0_A3_IS":"JPN","ADM0_A3_US":"JPN","ADM0_A3_UN":-99,"ADM0_A3_WB":-99,"CONTINENT":"Asia","REGION_UN":"Asia","SUBREGION":"Eastern Asia","REGION_WB":"East Asia & Pacific","NAME_LEN":8,"LONG_LEN":8,"ABBREV_LEN":4,"TINY":-99,"HOMEPART":1,"MIN_ZOOM":0,"MIN_LABEL":6,"MAX_LABEL":11,"NE_ID":1159320945,"WIKIDATAID":"Q1037393","NAME_AR":"هوكايدو","NAME_BN":null,"NAME_DE":"Präfektur Hokkaido","NAME_EN":"Hokkaidō Prefecture","NAME_ES":"Prefectura de Hokkaidō","NAME_FR":"Préfecture de Hokkaidō","NAME_EL":null,"NAME_HI":null,"NAME_HU":"Hokkaidó prefektúra","NAME_ID":"Prefektur Hokkaido","NAME_IT":"Prefettura di Hokkaidō","NAME_JA":"北海道","NAME_KO":"홋카이도","NAME_NL":"Prefectuur Hokkaidō","NAME_PL":"prefektura Hokkaido","NAME_PT":null,"NAME_RU":"Хоккайдо","NAME_SV":"Hokkaido prefektur","NAME_TR":null,"NAME_VI":null,"NAME_ZH":"北海道"}},{"type":"MultiPolygon","arcs":[[[67]],[[68]],[[69]],[[70]],[[71]],[[72]],[[73]],[[74]],[[75]],[[76]],[[77]],[[78]],[[79]],[[80]],[[81]],[[82]],[[83]],[[84]],[[85]],[[86]],[[87]],[[88]],[[89]],[[90]],[[91]],[[92]]],"properties":{"featurecla":"Admin-0 map subunit","scalerank":5,"LABELRANK":5,"SOVEREIGNT":"Japan","SOV_A3":"JPN","ADM0_DIF":0,"LEVEL":4,"TYPE":"Geo subunit","ADMIN":"Japan","ADM0_A3":"JPN","GEOU_DIF":0,"GEOUNIT":"Japan","GU_A3":"JPN","SU_DIF":1,"SUBUNIT":"Nanseishoto","SU_A3":"JPO","BRK_DIFF":0,"NAME":"Nansei-shoto","NAME_LONG":"Nansei-shoto","BRK_A3":"JPO","BRK_NAME":"Nanseishoto","BRK_GROUP":null,"ABBREV":"Nan.","POSTAL":"NN","FORMAL_EN":null,"FORMAL_FR":null,"NAME_CIAWF":null,"NOTE_ADM0":"Japan","NOTE_BRK":null,"NAME_SORT":"Nansei-shoto","NAME_ALT":"Ryukyu Islands, Ryukyu-shoto","MAPCOLOR7":5,"MAPCOLOR8":3,"MAPCOLOR9":5,"MAPCOLOR13":4,"POP_EST":1550161,"POP_RANK":12,"GDP_MD_EST":60461.13,"POP_YEAR":2013,"LASTCENSUS":-99,"GDP_YEAR":2013,"ECONOMY":"1. Developed region: G7","INCOME_GRP":"1. High income: OECD","WIKIPEDIA":-99,"FIPS_10_":"-99","ISO_A2":"-99","ISO_A3":"-99","ISO_A3_EH":"-99","ISO_N3":"-99","UN_A3":"-099","WB_A2":"-99","WB_A3":"-99","WOE_ID":-99,"WOE_ID_EH":-99,"WOE_NOTE":"No WOE equivalent.","ADM0_A3_IS":"JPN","ADM0_A3_US":"JPN","ADM0_A3_UN":-99,"ADM0_A3_WB":-99,"CONTINENT":"Asia","REGION_UN":"Asia","SUBREGION":"Eastern Asia","REGION_WB":"East Asia & Pacific","NAME_LEN":12,"LONG_LEN":12,"ABBREV_LEN":4,"TINY":-99,"HOMEPART":-99,"MIN_ZOOM":0,"MIN_LABEL":5.7,"MAX_LABEL":10.7,"NE_ID":1159320947,"WIKIDATAID":"Q10905515","NAME_AR":"جزر ريوكيو","NAME_BN":null,"NAME_DE":"Ryūkyū-Inseln","NAME_EN":"Ryukyu Islands","NAME_ES":"Islas Ryūkyū","NAME_FR":"Îles Ryūkyū","NAME_EL":"Νήσοι Ρίου Κίου","NAME_HI":"रयुक्यु द्वीपसमूह","NAME_HU":"Rjúkjú-szigetek","NAME_ID":"Kepulauan Ryukyu","NAME_IT":"Ryūkyū","NAME_JA":"琉球諸島","NAME_KO":"류큐 제도","NAME_NL":"Riukiu-eilanden","NAME_PL":"Wyspy Riukiu","NAME_PT":"Ryūkyū","NAME_RU":"Рюкю","NAME_SV":"Ryukyuöarna","NAME_TR":"Ryukyu Adaları","NAME_VI":null,"NAME_ZH":"琉球群岛"}},{"type":"MultiPolygon","arcs":[[[93]],[[94]],[[95]]],"properties":{"featurecla":"Admin-0 map subunit","scalerank":6,"LABELRANK":5,"SOVEREIGNT":"Japan","SOV_A3":"JPN","ADM0_DIF":0,"LEVEL":4,"TYPE":"Geo subunit","ADMIN":"Japan","ADM0_A3":"JPN","GEOU_DIF":0,"GEOUNIT":"Japan","GU_A3":"JPN","SU_DIF":1,"SUBUNIT":"Volcano Islands","SU_A3":"JPV","BRK_DIFF":0,"NAME":"Volcano Is.","NAME_LONG":"Volcano Islands","BRK_A3":"JPV","BRK_NAME":"Volcano Is.","BRK_GROUP":null,"ABBREV":"Vol.","POSTAL":"VI","FORMAL_EN":null,"FORMAL_FR":null,"NAME_CIAWF":null,"NOTE_ADM0":"Japan","NOTE_BRK":null,"NAME_SORT":"Volcano Islands","NAME_ALT":null,"MAPCOLOR7":5,"MAPCOLOR8":3,"MAPCOLOR9":5,"MAPCOLOR13":4,"POP_EST":400,"POP_RANK":2,"GDP_MD_EST":15.6,"POP_YEAR":2013,"LASTCENSUS":-99,"GDP_YEAR":2013,"ECONOMY":"1. Developed region: G7","INCOME_GRP":"1. High income: OECD","WIKIPEDIA":-99,"FIPS_10_":"-99","ISO_A2":"-99","ISO_A3":"-99","ISO_A3_EH":"-99","ISO_N3":"-99","UN_A3":"-099","WB_A2":"-99","WB_A3":"-99","WOE_ID":-99,"WOE_ID_EH":-99,"WOE_NOTE":"No WOE equivalent.","ADM0_A3_IS":"JPN","ADM0_A3_US":"JPN","ADM0_A3_UN":-99,"ADM0_A3_WB":-99,"CONTINENT":"Asia","REGION_UN":"Asia","SUBREGION":"Eastern Asia","REGION_WB":"East Asia & Pacific","NAME_LEN":11,"LONG_LEN":15,"ABBREV_LEN":4,"TINY":-99,"HOMEPART":-99,"MIN_ZOOM":0,"MIN_LABEL":5.7,"MAX_LABEL":10.7,"NE_ID":1159320953,"WIKIDATAID":"Q1141683","NAME_AR":"الجزر البركانية","NAME_BN":null,"NAME_DE":"Kazan-rettō","NAME_EN":"Volcano Islands","NAME_ES":"Islas de Los Volcanes","NAME_FR":"chaine des îles volcaniques","NAME_EL":"Νήσοι Βολκάνο","NAME_HI":null,"NAME_HU":null,"NAME_ID":null,"NAME_IT":"Isole Vulcano","NAME_JA":"火山列島","NAME_KO":"가잔 열도","NAME_NL":"Volcano Islands","NAME_PL":"Kazan Rettō","NAME_PT":"Ilhas Vulcano","NAME_RU":"Кадзан","NAME_SV":"Vulkanöarna","NAME_TR":null,"NAME_VI":"Quần đảo Kazan","NAME_ZH":"火山列岛"}},{"type":"MultiPolygon","arcs":[[[96]],[[97]],[[98]],[[99]],[[100]],[[101]]],"properties":{"featurecla":"Admin-0 map subunit","scalerank":5,"LABELRANK":5,"SOVEREIGNT":"Japan","SOV_A3":"JPN","ADM0_DIF":0,"LEVEL":4,"TYPE":"Geo subunit","ADMIN":"Japan","ADM0_A3":"JPN","GEOU_DIF":0,"GEOUNIT":"Japan","GU_A3":"JPN","SU_DIF":1,"SUBUNIT":"Bonin Islands","SU_A3":"JPB","BRK_DIFF":0,"NAME":"Bonin Is.","NAME_LONG":"Bonin Islands","BRK_A3":"JPB","BRK_NAME":"Bonin Is.","BRK_GROUP":null,"ABBREV":"Bon. Is.","POSTAL":"BI","FORMAL_EN":null,"FORMAL_FR":null,"NAME_CIAWF":null,"NOTE_ADM0":"Japan","NOTE_BRK":null,"NAME_SORT":"Bonin Islands","NAME_ALT":"Ogasawara Group, Ogasawara Gunto","MAPCOLOR7":5,"MAPCOLOR8":3,"MAPCOLOR9":5,"MAPCOLOR13":4,"POP_EST":2440,"POP_RANK":4,"GDP_MD_EST":95.17,"POP_YEAR":2013,"LASTCENSUS":-99,"GDP_YEAR":2013,"ECONOMY":"1. Developed region: G7","INCOME_GRP":"1. High income: OECD","WIKIPEDIA":-99,"FIPS_10_":"-99","ISO_A2":"-99","ISO_A3":"-99","ISO_A3_EH":"-99","ISO_N3":"-99","UN_A3":"-099","WB_A2":"-99","WB_A3":"-99","WOE_ID":-99,"WOE_ID_EH":-99,"WOE_NOTE":"No WOE equivalent.","ADM0_A3_IS":"JPN","ADM0_A3_US":"JPN","ADM0_A3_UN":-99,"ADM0_A3_WB":-99,"CONTINENT":"Asia","REGION_UN":"Asia","SUBREGION":"Eastern Asia","REGION_WB":"East Asia & Pacific","NAME_LEN":9,"LONG_LEN":13,"ABBREV_LEN":8,"TINY":-99,"HOMEPART":-99,"MIN_ZOOM":0,"MIN_LABEL":5,"MAX_LABEL":10,"NE_ID":1159320939,"WIKIDATAID":"Q243634","NAME_AR":"جزر بونين","NAME_BN":null,"NAME_DE":"Ogasawara-guntō","NAME_EN":"Bonin Islands","NAME_ES":"Islas Ogasawara","NAME_FR":"îles d'Ogasawara","NAME_EL":"Νήσοι Ογκασαβάρα","NAME_HI":null,"NAME_HU":"Ogaszavara-szigetek","NAME_ID":"Kepulauan Bonin","NAME_IT":"Isole Bonin","NAME_JA":"小笠原群島","NAME_KO":"오가사와라 제도","NAME_NL":"Bonin-eilanden","NAME_PL":"Ogasawara","NAME_PT":"Ilhas Ogasawara","NAME_RU":"Бонинские острова","NAME_SV":"Ogasawaraöarna","NAME_TR":"Ogasavara Adaları","NAME_VI":"Quần đảo Ogasawara","NAME_ZH":"小笠原群岛"}},{"type":"MultiPolygon","arcs":[[[102]],[[103]],[[104]],[[105]],[[106]],[[107]],[[108]]],"properties":{"featurecla":"Admin-0 map subunit","scalerank":5,"LABELRANK":5,"SOVEREIGNT":"Japan","SOV_A3":"JPN","ADM0_DIF":0,"LEVEL":4,"TYPE":"Geo subunit","ADMIN":"Japan","ADM0_A3":"JPN","GEOU_DIF":0,"GEOUNIT":"Japan","GU_A3":"JPN","SU_DIF":1,"SUBUNIT":"Izushoto","SU_A3":"JPI","BRK_DIFF":0,"NAME":"Izu-shoto","NAME_LONG":"Izu-shoto","BRK_A3":"JPI","BRK_NAME":"Izushoto","BRK_GROUP":null,"ABBREV":"Izu.","POSTAL":"IZ","FORMAL_EN":null,"FORMAL_FR":null,"NAME_CIAWF":null,"NOTE_ADM0":"Japan","NOTE_BRK":null,"NAME_SORT":"Izu-shoto","NAME_ALT":null,"MAPCOLOR7":5,"MAPCOLOR8":3,"MAPCOLOR9":5,"MAPCOLOR13":4,"POP_EST":24960,"POP_RANK":7,"GDP_MD_EST":973.52,"POP_YEAR":2013,"LASTCENSUS":-99,"GDP_YEAR":2013,"ECONOMY":"1. Developed region: G7","INCOME_GRP":"1. High income: OECD","WIKIPEDIA":-99,"FIPS_10_":"-99","ISO_A2":"-99","ISO_A3":"-99","ISO_A3_EH":"-99","ISO_N3":"-99","UN_A3":"-099","WB_A2":"-99","WB_A3":"-99","WOE_ID":-99,"WOE_ID_EH":-99,"WOE_NOTE":"No WOE equivalent.","ADM0_A3_IS":"JPN","ADM0_A3_US":"JPN","ADM0_A3_UN":-99,"ADM0_A3_WB":-99,"CONTINENT":"Asia","REGION_UN":"Asia","SUBREGION":"Eastern Asia","REGION_WB":"East Asia & Pacific","NAME_LEN":9,"LONG_LEN":9,"ABBREV_LEN":4,"TINY":-99,"HOMEPART":1,"MIN_ZOOM":0,"MIN_LABEL":5.7,"MAX_LABEL":10.7,"NE_ID":1159320943,"WIKIDATAID":"Q864302","NAME_AR":"جزر إيزو","NAME_BN":null,"NAME_DE":"Izu-Inseln","NAME_EN":"Izu Islands","NAME_ES":"Islas Izu","NAME_FR":"Archipel d'Izu","NAME_EL":"Νήσοι Ίζου","NAME_HI":null,"NAME_HU":null,"NAME_ID":null,"NAME_IT":"Isole Izu","NAME_JA":"伊豆諸島","NAME_KO":"이즈 제도","NAME_NL":"Izu-eilanden","NAME_PL":"Wyspy Izu","NAME_PT":"Ilhas Izu","NAME_RU":"Идзу","NAME_SV":"Izuöarna","NAME_TR":"Izu Adaları","NAME_VI":"Quần đảo Izu","NAME_ZH":"伊豆群島"}}]}},"arcs":[[[129.7832137380001,31.799627997000073],[129.79957116000003,31.745428778000075],[129.72934004,31.644232489000046],[129.6593736750001,31.64193470500004],[129.71664472700002,31.73037344000005],[129.7832137380001,31.799627997000073]],[[133.12134850400003,36.10976797100005],[133.12322024800005,36.062933661000045],[133.0791121750001,36.02094147300005],[133.08130944100003,36.080145575000074],[133.12134850400003,36.10976797100005]],[[133.09058678500003,36.11786530200004],[133.09058678500003,36.11786530200004]],[[133.0742293630001,36.12791575700004],[133.05583743600005,36.061753648000035],[132.99040774800005,36.077053127000056],[133.03874759200005,36.13080475500004],[133.0742293630001,36.12791575700004]],[[143.8964949880001,44.15814850500004],[143.8964949880001,44.15814850500004]],[[131.25513756600003,25.87498607000009],[131.2524520190001,25.81903717700004],[131.21208743600005,25.829046942000048],[131.25513756600003,25.87498607000009]],[[130.67457116000003,30.37457916900007],[130.64714603000004,30.29051341400009],[130.57727971400004,30.23590585900007],[130.4377132080001,30.238970153000082],[130.376246508,30.394435997000073],[130.42336102800004,30.398968251000042],[130.4989507360001,30.467962261000082],[130.67457116000003,30.37457916900007]],[[131.05201256600003,30.840236721000053],[131.087933572,30.782606299000065],[131.0355637560001,30.557209431000047],[131.00340350800002,30.55116662200004],[130.9647533760001,30.456319105000034],[130.96217717500008,30.372808183000075],[130.87038107900003,30.343904295000073],[130.85149508200004,30.470143740000083],[130.93022119900002,30.54085964500007],[130.95093834700003,30.595038153000075],[130.93929969700002,30.672251498000037],[130.99970311700008,30.745686335000073],[131.05201256600003,30.840236721000053]],[[130.15308678500003,32.20376211100006],[130.19410241000003,32.17641836100006],[130.167328321,32.11432526200008],[130.12777754,32.13231028900009],[130.11109459700003,32.19330475500004],[130.15308678500003,32.20376211100006]],[[130.41000410200002,32.51162344000005],[130.4570418630001,32.52558014500005],[130.39283287900003,32.39716217700004],[130.353851759,32.42413971600007],[130.24195397200003,32.39549388200004],[130.21859785200002,32.455959377000056],[130.36304772200003,32.52708567900004],[130.41000410200002,32.51162344000005]],[[130.160492384,32.54633209800005],[130.19898522200003,32.480169989000046],[130.20337975400003,32.33885325700004],[130.1333113940001,32.26512278900009],[129.995453321,32.190659898000035],[130.009125196,32.25214264500005],[129.958343946,32.237534898000035],[130.0166121750001,32.29311758000006],[129.97527103000004,32.35541413000004],[130.03296959700003,32.521918036000045],[130.160492384,32.54633209800005]],[[128.87842693200002,32.673924825000086],[128.899261915,32.64252350500004],[128.77222741000003,32.63190338700008],[128.773110265,32.57166584300006],[128.7360418190001,32.603493841000045],[128.65263104100006,32.59107501300008],[128.60043889300005,32.614177909000034],[128.652679884,32.66791413000004],[128.64176757200005,32.76138397300008],[128.679047071,32.782904364000046],[128.69965289100003,32.743771302000084],[128.8084903890001,32.799908412000036],[128.8422957690001,32.759466864000046],[128.842068713,32.70386139100009],[128.87842693200002,32.673924825000086]],[[129.097992384,32.988267320000034],[129.1696282160001,33.005816536000054],[129.17595462300005,32.96698639500005],[129.09253686500006,32.90660793700005],[129.0965722520001,32.85694237600006],[129.04572282800007,32.822092732000044],[129.0478195170001,32.909964614000046],[128.97942307000005,32.94760914500006],[129.05445397200003,32.97931549700007],[129.04862219400002,33.039602796000054],[129.0839949880001,33.02338288000004],[129.085875278,33.07620750500007],[129.12391110500005,33.109172923000074],[129.097992384,32.988267320000034]],[[129.5556842000001,33.41080491100007],[129.56216330100006,33.366393867000056],[129.44660473600004,33.19851960500006],[129.37602131000006,33.16971922700009],[129.3498690240001,33.21346751500005],[129.41676916100005,33.23692960500006],[129.442662691,33.34806608900004],[129.49512950000008,33.35829457300008],[129.5556842000001,33.41080491100007]],[[132.24366295700008,33.79328034100007],[132.24366295700008,33.79328034100007]],[[129.7763778000001,33.773423570000034],[129.721039259,33.69773997600004],[129.657126909,33.74255478300006],[129.6569338810001,33.81545368900004],[129.68864750300008,33.871145815000034],[129.76726321700005,33.84454987200007],[129.7763778000001,33.773423570000034]],[[132.23617597700002,33.86904531500005],[132.18628991000003,33.921210028000075],[132.25359134200005,33.950100002000056],[132.3261824880001,33.89630768400008],[132.42758222700002,33.939886786000045],[132.46949303500003,33.937933661000045],[132.38070722700002,33.886419989000046],[132.3740340500001,33.84170156500005],[132.3286238940001,33.875067450000074],[132.23617597700002,33.86904531500005]],[[132.5551863940001,34.07135651200008],[132.45533287900003,34.08812083500004],[132.51002037900003,34.13182200700004],[132.51929772200003,34.17438385600008],[132.5551863940001,34.07135651200008]],[[132.99947548700004,34.208377288000065],[132.9697371750001,34.25263092700004],[133.03003991000003,34.29531484600005],[133.0556746750001,34.24237702000005],[132.99947548700004,34.208377288000065]],[[129.31252838900002,34.27975637600008],[129.32480321700007,34.22925262400008],[129.27658744000007,34.12911120600006],[129.220421471,34.08887792300004],[129.17163425900003,34.10680681200006],[129.19853454100007,34.316228084000045],[129.22405260200003,34.29344308800006],[129.30246202400008,34.30778735000007],[129.31252838900002,34.27975637600008]],[[135.002681887,34.60842304800008],[135.03012129,34.57884349200009],[134.98414147200003,34.50576406500005],[134.902973179,34.41900554700004],[134.89576256600003,34.372748114000046],[134.95825406100005,34.27035550100004],[134.72867714100005,34.190939349000075],[134.65716913300002,34.288204316000076],[134.72081440700003,34.329788749000045],[134.79895562900003,34.44679379100006],[134.8838308930001,34.529488695000055],[135.002681887,34.60842304800008]],[[129.45264733200008,34.61945221600007],[129.47820071700005,34.59711334800005],[129.4460831890001,34.51477564000004],[129.379472781,34.452622973000075],[129.38814520100004,34.36675509200006],[129.368241614,34.30743171200004],[129.324511883,34.304593338000075],[129.3470027080001,34.35585198900009],[129.27199211700008,34.35621928200004],[129.276044124,34.46218849400009],[129.3261191900001,34.53543877000004],[129.29094474300007,34.55607171200006],[129.32330009600003,34.64807215700006],[129.37833743400006,34.644851764000066],[129.42330488100004,34.69507089000007],[129.4877511300001,34.676396890000035],[129.45264733200008,34.61945221600007]],[[133.01246178500003,36.01479726800005],[133.01246178500003,36.01479726800005]],[[133.36703535200002,36.27423737200007],[133.379242384,36.208238023000035],[133.32601972700002,36.15814850500004],[133.2563582690001,36.16498444200005],[133.18775475400003,36.216131903000075],[133.2094832690001,36.29718659100007],[133.2920028000001,36.34247467700004],[133.36703535200002,36.27423737200007]],[[138.45923912900003,38.06989166900007],[138.5752059250001,38.074286200000074],[138.5752059250001,38.03510163000004],[138.48650149800005,37.89175039300005],[138.37037194100003,37.82876211100006],[138.26514733200008,37.79832591400009],[138.22388756600003,37.83417389500005],[138.27214603000004,37.842230536000045],[138.28785241000003,37.90599192900004],[138.34253991000003,37.966864325000074],[138.314789259,37.99746328300006],[138.24789472700002,37.978501695000034],[138.25310306100005,38.09031810100004],[138.31006920700008,38.16811758000006],[138.42855879,38.256293036000045],[138.46941165500004,38.31317780200004],[138.5141707690001,38.32306549700007],[138.50709069100003,38.241441148000035],[138.4438582690001,38.10224030200004],[138.45923912900003,38.06989166900007]],[[139.54851321700005,42.243353583000044],[139.50896243600005,42.100816148000035],[139.43539472700002,42.062933661000045],[139.41431725400003,42.17251211100006],[139.43702233200008,42.20722077000005],[139.54851321700005,42.243353583000044]],[[145.3115340500001,43.59332916900007],[145.36280358200008,43.55487702000005],[145.27320397200003,43.522365627000056],[145.3320418630001,43.56541575700004],[145.20240319100003,43.61383698100008],[145.3115340500001,43.59332916900007]],[[144.4482528000001,43.94220612200007],[144.4482528000001,43.94220612200007]],[[141.3271590500001,45.17234935100004],[141.30445397200003,45.12018463700008],[141.2353621750001,45.10248444200005],[141.15007571700005,45.14712148600006],[141.1318465500001,45.210272528000075],[141.20264733200008,45.24909088700008],[141.26832116000003,45.22553131700005],[141.3271590500001,45.17234935100004]],[[141.0527449880001,45.450425523000035],[141.073578321,45.424709377000056],[141.0590926440001,45.321966864000046],[141.0356551440001,45.292181708000044],[140.9941512380001,45.37103913000004],[141.00660241000003,45.44041575700004],[141.0527449880001,45.450425523000035]],[[140.86996504,27.21824778900009],[140.86996504,27.21824778900009]],[[130.220062696,30.471584377000056],[130.26214412700006,30.447032385000057],[130.2124676420001,30.420690741000044],[130.220062696,30.471584377000056]],[[134.36736087300005,34.55426666900007],[134.34693444100003,34.43081289300005],[134.320648634,34.46893952000005],[134.26238040500004,34.42088450700004],[134.22339928500003,34.472357489000046],[134.17017662900003,34.46548086100006],[134.17505944100003,34.52008698100008],[134.36736087300005,34.55426666900007]],[[153.972992384,24.28969961100006],[153.972992384,24.28969961100006]],[[131.28972415500004,25.95136139500005],[131.28972415500004,25.95136139500005]],[[140.3076278000001,30.491156317000048],[140.3076278000001,30.491156317000048]],[[129.4282332690001,30.84642161700009],[129.4282332690001,30.84642161700009]],[[129.9462996750001,30.84471263200004],[129.9462996750001,30.84471263200004]],[[140.0434676440001,31.443101304000038],[140.0434676440001,31.443101304000038]],[[140.04127037900003,31.444159247000073],[140.04127037900003,31.444159247000073]],[[139.37289472700002,41.52216217700004],[139.37289472700002,41.52216217700004]],[[153.966237826,24.308661200000074],[153.966237826,24.308661200000074]],[[129.93336022200003,31.86782461100006],[129.922211134,31.81981028900009],[129.8759871750001,31.81126536700009],[129.82056725400003,31.845526434000078],[129.84498131600003,31.880601304000038],[129.90992272200003,31.845689195000034],[129.93336022200003,31.86782461100006]],[[130.24390709700003,32.30182526200008],[130.24390709700003,32.30182526200008]],[[130.44678795700008,32.59682851800005],[130.4091903000001,32.549261786000045],[130.398773634,32.59316640800006],[130.44678795700008,32.59682851800005]],[[132.56202233200008,32.74213288000004],[132.56202233200008,32.74213288000004]],[[128.899750196,32.81830475500004],[128.88233483200008,32.765285549000055],[128.83521569100003,32.78766510600008],[128.837250196,32.83380768400008],[128.899750196,32.81830475500004]],[[128.9531356130001,32.874212958000044],[128.94507897200003,32.804348049000055],[128.89576256600003,32.85643138200004],[128.9531356130001,32.874212958000044]],[[129.0278426440001,32.89980703300006],[129.028168165,32.85565827000005],[128.96802819100003,32.87368398600006],[128.97934004,32.92023346600007],[129.0278426440001,32.89980703300006]],[[129.13550866000003,33.29987213700008],[129.127289259,33.24750397300005],[129.0761824880001,33.268784898000035],[129.13550866000003,33.29987213700008]],[[129.55591881600003,33.49396393400008],[129.55591881600003,33.49396393400008]],[[132.64136803500003,34.01406484600005],[132.63445071700005,33.964829820000034],[132.5869246750001,33.96967194200005],[132.64136803500003,34.01406484600005]],[[133.09351647200003,34.17430247600004],[133.01710045700008,34.118841864000046],[133.02621504,34.17617422100005],[133.09351647200003,34.17430247600004]],[[132.73853600400003,34.196966864000046],[132.73853600400003,34.196966864000046]],[[132.92115319100003,34.277329820000034],[132.91675866000003,34.221869208000044],[132.86312910200002,34.20848216400009],[132.84644616000003,34.240220445000034],[132.92115319100003,34.277329820000034]],[[132.3383895190001,34.30442942900004],[132.2959090500001,34.24323151200008],[132.26726321700005,34.253607489000046],[132.3383895190001,34.30442942900004]],[[133.715668165,34.396144924000055],[133.715668165,34.396144924000055]],[[135.20517916100005,34.43049087500009],[135.20517916100005,34.43049087500009]],[[134.04900149800005,34.47435130400004],[134.04900149800005,34.47435130400004]],[[136.891968442,34.49669208000006],[136.891968442,34.49669208000006]],[[136.89017871600004,34.531200943000044],[136.89017871600004,34.531200943000044]],[[136.79805969000006,34.87640064000004],[136.79805969000006,34.87640064000004]],[[137.04810631600003,37.15228913000004],[137.03874759200005,37.12010325700004],[136.943695509,37.097357489000046],[136.9052840500001,37.14362213700008],[137.04810631600003,37.15228913000004]],[[131.65979027600008,32.47681957400005],[131.68913158600003,32.421737335000046],[131.63347415500004,32.39549388200004],[131.59253991000003,32.30365631700005],[131.53052845600007,32.10739128200004],[131.4472762380001,31.876898505000042],[131.47527103000004,31.762152411000045],[131.45533287900003,31.620917059000078],[131.411468946,31.58612702000005],[131.39372806100005,31.491034247000073],[131.338226759,31.37262604400007],[131.24984785200002,31.38812897300005],[131.21265709700003,31.454738674000055],[131.15064537900003,31.47134023600006],[131.07178795700008,31.449611721000053],[131.01361073600003,31.363069850000045],[131.1040145190001,31.32884349200009],[131.07421690500007,31.28210440500004],[131.13211394400003,31.279513102000067],[131.06024973900003,31.225314840000067],[131.00815940200005,31.22108228400009],[130.97999108200008,31.155991929000038],[130.92400149800005,31.112982489000046],[130.79235710500006,31.077847115000054],[130.6577220260001,31.00319120000006],[130.66333941000005,31.069506364000063],[130.7426863940001,31.12128327000005],[130.7803691150001,31.242514662000076],[130.79525160600008,31.344425107000063],[130.74732506600003,31.435492255000042],[130.70341738600007,31.45930455100006],[130.69556725400003,31.545803127000056],[130.5908888460001,31.585987911000075],[130.63787805900006,31.622594691000074],[130.71168053500003,31.614406643000052],[130.758636915,31.563788153000075],[130.79900149800005,31.611721096000053],[130.80453535200002,31.687241929000038],[130.6860457690001,31.725531317000048],[130.61304772200003,31.68235911700009],[130.52914472700002,31.51325104400007],[130.5205184250001,31.432440497000073],[130.57349694100003,31.314601955000057],[130.66032962300005,31.271429755000042],[130.63982181100005,31.186468817000048],[130.5864363940001,31.155422268000052],[130.52173912900003,31.16868724200009],[130.49480228000004,31.22724030200004],[130.45114447600008,31.249388072000045],[130.2222047140001,31.246299862000058],[130.19654381600003,31.35419342700004],[130.11898847700002,31.408636786000045],[130.16236412900003,31.421942450000074],[130.22828209700003,31.381293036000045],[130.293268129,31.44470403200006],[130.3344832690001,31.56240469000005],[130.33619225400003,31.626166083000044],[130.25928795700008,31.720851955000057],[130.1840926440001,31.758693752000056],[130.17143062700006,31.790136657000062],[130.22043774400004,31.929594515000076],[130.1729936600001,32.01744955600009],[130.20404812200002,32.04828530800006],[130.17986087300005,32.093451239000046],[130.24830162900003,32.13373444200005],[130.278656446,32.10053131700005],[130.33187910200002,32.128607489000046],[130.35865319100003,32.190659898000035],[130.431000196,32.257147528000075],[130.4770613940001,32.34902578300006],[130.56202233200008,32.427069403000075],[130.59880618600005,32.50535716400009],[130.57007897200003,32.55459219000005],[130.668304884,32.64874909100007],[130.44800866000003,32.62140534100007],[130.576508009,32.69839101800005],[130.6259871750001,32.704006252000056],[130.59197024800005,32.74872467700004],[130.59302819100003,32.81586334800005],[130.43311608200008,32.94171784100007],[130.422211134,33.08258698100008],[130.36475670700008,33.140326239000046],[130.29044274400007,33.14958862900005],[130.24139647700008,33.188234066000064],[130.1319460850001,33.101971727000034],[130.22231019900005,32.97520504800008],[130.18853629400007,32.91532115800004],[130.10531660200002,32.87592194200005],[130.15363495200006,32.84245733200004],[130.24358790200006,32.875284097000076],[130.339419787,32.856579311000075],[130.37224368600005,32.793402411000045],[130.36082701600003,32.687963369000045],[130.26823067700002,32.65036133400008],[130.23154564000004,32.61001434800005],[130.16598697300003,32.59295565700006],[130.12813256000004,32.68387054600004],[130.21031382400008,32.73324984100009],[130.17842736700004,32.79292178700007],[130.093789355,32.79486030900006],[130.032411657,32.75934986500005],[129.95489089500006,32.745171077000066],[129.89492938400008,32.662689399000044],[129.7858295540001,32.58310535600009],[129.83437803100003,32.69412163700008],[129.77100670700008,32.81395091400009],[129.7327100450001,32.80557017500007],[129.6324026650001,32.97910666700005],[129.68161222900005,33.094092267000065],[129.7596653390001,33.047889438000084],[129.82327699500001,32.97953752800004],[129.79439983400005,32.874920702000054],[129.845439553,32.83830848400004],[129.88320558400005,32.87569270700004],[130.00314754200008,32.845378716000084],[129.93122442100002,32.92889427000006],[129.9456226420001,33.015757714000074],[129.881443666,33.062762999000086],[129.8238593850001,33.043118812000046],[129.79751505900003,33.07730904400006],[129.74647953500005,33.065590119000035],[129.747730037,33.13952432900004],[129.70976418500004,33.16257034400007],[129.7041121750001,33.11180247600004],[129.6455184250001,33.19745514500005],[129.56413821700005,33.21112702000005],[129.59241527900008,33.381115210000075],[129.64437910200002,33.36237213700008],[129.80746504,33.34813060100004],[129.8515731130001,33.28001536700009],[129.86866295700008,33.39744700700004],[129.7872572230001,33.45451903900005],[129.81844004700008,33.48421177600005],[129.87134850400003,33.44293854400007],[129.8368347390001,33.513254121000045],[129.8531871560001,33.55250171100005],[129.961273634,33.51276276200008],[129.9412089010001,33.47953658700004],[130.01685631600003,33.44578685100004],[130.05529438300005,33.495225676000075],[130.15642337300005,33.525376695000034],[130.09205162900003,33.566473700000074],[130.1595475270001,33.62959605400005],[130.23170006600003,33.65330638200004],[130.2313843830001,33.61884615200006],[130.31530703800001,33.59736182000006],[130.39086562400007,33.60487402200005],[130.39869225400003,33.669134833000044],[130.46767384400005,33.74356360100006],[130.449554884,33.80223216400009],[130.48894290500004,33.85537344000005],[130.548187696,33.88076406500005],[130.63306725400003,33.882473049000055],[130.684418165,33.93423086100006],[130.82822790400007,33.93958513800004],[130.91358483200008,33.89118073100008],[131.007147594,33.96605493200008],[130.9998293210001,33.87386354000006],[130.96168053500003,33.81622955900008],[131.0069447090001,33.813087590000066],[131.0097762380001,33.746161200000074],[131.0644637380001,33.65326569200005],[131.1199716970001,33.62633852100004],[131.2564638120001,33.60495535200005],[131.28383445500003,33.58236918000006],[131.41770310800007,33.58168167900004],[131.52104511700009,33.67637079200006],[131.66736627400007,33.66719200300008],[131.72953798100002,33.58023616300005],[131.737294841,33.48460779900006],[131.697436434,33.406392597000035],[131.64031009200005,33.41657135600008],[131.59623445500006,33.349400219000074],[131.532980942,33.366113306000045],[131.49838511400003,33.34066626900005],[131.51037964,33.273403693000034],[131.61221917500006,33.25293648400009],[131.71086238200007,33.27017583800006],[131.82217409700002,33.24403243800009],[131.902624533,33.26604183300009],[131.87224368600005,33.20034414300005],[131.8095736890001,33.12764888700008],[131.91145721600003,33.12481513400007],[131.8632173310001,33.08253329200005],[132.01343834700003,33.06386953300006],[131.929550264,33.047089602000085],[131.903168165,32.98305898600006],[132.02547498600006,32.923595910000074],[131.9555770190001,32.82754140800006],[131.9965926440001,32.810532945000034],[131.88249759200005,32.78343333500004],[131.84791100400003,32.68183014500005],[131.82193770100002,32.70268559100009],[131.74333743600005,32.587958075000074],[131.6821395190001,32.53506094000005],[131.73650149800005,32.49168528900009],[131.65979027600008,32.47681957400005]],[[134.689789259,33.82807038000004],[134.75123131600003,33.83490631700005],[134.57937739500005,33.76417006200006],[134.57066101500004,33.736448978000055],[134.3761745380001,33.63565700800007],[134.38862168100002,33.623634081000034],[134.2732050850001,33.50800352400006],[134.21452884200005,33.376613674000055],[134.19025513100007,33.24832929400009],[134.0400496750001,33.384100653000075],[133.9687606130001,33.43569570500006],[133.92520516600007,33.49369326100009],[133.76305219800008,33.51978440700009],[133.73939679,33.537506879000034],[133.60773318400004,33.51582468000004],[133.46590938600002,33.454324098000086],[133.4550887380001,33.41469961100006],[133.26937910200002,33.346869208000044],[133.253265821,33.21906159100007],[133.19014923300006,33.16331643500007],[133.0971161340001,33.048111006000056],[133.01825880900003,33.024023267000075],[132.994412721,32.948993177000034],[133.0024520190001,32.86933014500005],[132.96105903500006,32.86410052600007],[132.95547713300004,32.81461873300009],[133.02800540500004,32.72064850500004],[132.9765731130001,32.72451406500005],[132.9150496750001,32.77798086100006],[132.81218509200005,32.740301825000074],[132.71140079600002,32.78952538900006],[132.62766076800006,32.752093098000046],[132.623376882,32.79949569300004],[132.70915774800005,32.909409898000035],[132.61841881600003,32.90688711100006],[132.52418053500003,32.93024323100008],[132.52076256600003,32.88930898600006],[132.47227232600005,32.933672312000056],[132.50147545700008,32.99323151200008],[132.45183353000004,33.05288320500006],[132.46900475400003,33.095770575000074],[132.42366068900003,33.19917609400005],[132.48570176400005,33.169153220000055],[132.54836358700004,33.226902944000074],[132.484735461,33.29084085900007],[132.5256097680001,33.31466423100005],[132.42012139200006,33.30435563900005],[132.38111412900003,33.466050523000035],[132.30780389000006,33.46428988300005],[132.17973878400005,33.40698609900005],[132.13066048300004,33.36356636600004],[132.1102955670001,33.386727643000086],[132.01053892000004,33.34898863900008],[132.155280026,33.437046147000046],[132.26463165100006,33.464073502000076],[132.41236412900003,33.53497955900008],[132.50061234100008,33.62499820900007],[132.60173587300005,33.66038646000004],[132.676605665,33.71564362200007],[132.712370372,33.904548780000084],[132.7549368770001,33.91032024900005],[132.76986156700002,33.996270044000084],[132.8623590960001,34.055893542000035],[132.91911043000005,34.06840607300006],[132.94238361200007,34.14126203700005],[133.0318488380001,34.052734410000085],[133.08660030500005,33.94931331500004],[133.146703956,33.93154110200004],[133.322607543,33.990552810000054],[133.51099694100003,33.96523672100005],[133.62086022200003,34.04555898600006],[133.64812259200005,34.124660549000055],[133.6411238940001,34.18463776200008],[133.55836022200003,34.259466864000046],[133.70142662900003,34.23126862200007],[133.78199303500003,34.288275458000044],[133.94654381600003,34.376166083000044],[134.08130944100003,34.347723700000074],[134.15300540500004,34.38572825700004],[134.16627037900003,34.32485586100006],[134.2168074880001,34.35504791900007],[134.27125084700003,34.32306549700007],[134.2578231130001,34.294175523000035],[134.43976701100007,34.20834943300008],[134.6468714560001,34.239252459000056],[134.64208874500002,34.179263295000055],[134.59522545700008,34.04596588700008],[134.69596250000006,33.95189325700005],[134.70289147200003,33.906236070000034],[134.64625084700003,33.85309479400007],[134.689789259,33.82807038000004]],[[133.422211134,34.445013739000046],[133.34107506600003,34.34804922100005],[133.2954207690001,34.32489655200004],[133.3046981130001,34.37759023600006],[133.24732506600003,34.42649974200009],[133.1821395190001,34.34137604400007],[133.20289147200003,34.28888580900008],[133.09327233200008,34.25263092700004],[133.0722762380001,34.31753164300005],[133.133148634,34.31818268400008],[133.1684676440001,34.362494208000044],[133.0791121750001,34.38231028900009],[133.08578535200002,34.35101959800005],[133.01832116000003,34.32330963700008],[132.91187584700003,34.31476471600007],[132.85303795700008,34.28733958500004],[132.83619225400003,34.31110260600008],[132.7622176440001,34.27033112200007],[132.7714949880001,34.23529694200005],[132.6562606130001,34.199286200000074],[132.61353600400003,34.218451239000046],[132.56617272200003,34.19196198100008],[132.50367272200003,34.28733958500004],[132.49683678500003,34.362494208000044],[132.38347415500004,34.365668036000045],[132.31234785200002,34.32697174700007],[132.22250410200002,34.23895905200004],[132.23894290500004,34.142645575000074],[132.20191491000003,34.108587958000044],[132.213226759,33.98965078300006],[132.1425887380001,33.94643789300005],[132.15007571700005,33.830145575000074],[132.041351759,33.776271877000056],[132.09945722700002,33.872259833000044],[131.97234134200005,33.91681549700007],[131.8520613940001,33.99835846600007],[131.791351759,33.964056708000044],[131.82390384200005,34.02016836100006],[131.74146569100003,34.05621979400007],[131.58513431100005,34.026678778000075],[131.56763756600003,33.98627350500004],[131.4829207690001,34.03204987200007],[131.449554884,33.98224518400008],[131.40967858200008,33.98305898600006],[131.38990319100003,34.03974030200004],[131.32195071700005,33.95307038000004],[131.27222741000003,33.92682526200008],[131.2207137380001,33.950384833000044],[131.1782332690001,33.93048737200007],[131.1660262380001,33.97711823100008],[131.10316468400003,34.03021689000008],[131.03559480800004,34.04797509500008],[130.93208630100003,33.94536528400005],[130.8994246750001,33.94985586100006],[130.91713452200008,34.01091306300009],[130.86158287900003,34.11273834800005],[130.92335045700008,34.18378327000005],[130.8715926440001,34.27924225500004],[130.89991295700008,34.35504791900007],[131.03360681000004,34.381789240000046],[130.9550887380001,34.40346914300005],[131.133922988,34.41156180400009],[131.172699415,34.36774323100008],[131.17131454900004,34.42953460500007],[131.2526317610001,34.437386992000086],[131.2089949880001,34.36933014500005],[131.41431725400003,34.42397695500006],[131.45476321700005,34.51911041900007],[131.52076256600003,34.55190664300005],[131.59687157300004,34.659589372000084],[131.790375196,34.68610260600008],[131.8584090500001,34.714504299000055],[131.87375767000003,34.75922287700007],[131.99732506600003,34.837225653000075],[132.06330411800002,34.907489343000066],[132.23649497000008,35.034818088000065],[132.31684998700007,35.062346339000044],[132.40808491500002,35.17505067800005],[132.53193742200006,35.25767159600008],[132.63867918900007,35.29464467300005],[132.6707911430001,35.39947458800009],[132.63535916900003,35.44095469500007],[132.75473933400008,35.45624507500008],[132.72549563500002,35.47077964400006],[132.86490913700004,35.51098268100009],[132.9697371750001,35.51699453300006],[133.033489379,35.545992142000046],[133.091261013,35.60148491100006],[133.15646656900003,35.56262168500007],[133.32601972700002,35.56850820500006],[133.254730665,35.53384023600006],[133.2646590500001,35.496161200000074],[133.3296256210001,35.46550438700007],[133.41741190900007,35.45654296500004],[133.44124508900006,35.49103766500008],[133.58018171100002,35.533602742000085],[133.731144642,35.50290661400004],[133.9115467370001,35.51459457200008],[134.00838333700005,35.53704892300004],[134.03478971200002,35.519355662000066],[134.23776516100008,35.546651206000035],[134.29387121000002,35.585893956000064],[134.46621486200002,35.63755465300005],[134.5369873090001,35.67220309900006],[134.59020875200008,35.65942839100006],[134.79829520400006,35.665642253000044],[134.92701256600003,35.64118073100008],[135.084119836,35.73902244700008],[135.22684561200003,35.772320652000076],[135.304047071,35.68891022300005],[135.25882700300008,35.65682881300006],[135.18817537200005,35.56504457600005],[135.24822550200008,35.59169447900007],[135.23873893400003,35.54202559100008],[135.33548989200006,35.50821008500009],[135.3377962190001,35.537477564000085],[135.452389789,35.571781119000036],[135.5122176440001,35.548041083000044],[135.51099694100003,35.49819570500006],[135.55827884200005,35.49176666900007],[135.64894517800008,35.54283352900006],[135.645065724,35.48020001400005],[135.72443120100002,35.49073208600004],[135.69163589700008,35.54587719600005],[135.73844643100006,35.57053137300005],[135.81049953600007,35.52686268400004],[135.80150220300004,35.568003462000036],[135.85474694100003,35.57904694200005],[135.81601831600005,35.63085602400008],[135.91944111600003,35.60816038200005],[135.98057361100007,35.63048059100004],[135.95600508100006,35.728324936000035],[136.01970526600007,35.765347201000054],[136.06911435400002,35.66187974300004],[136.09945722700002,35.77570221600007],[136.07049761300004,35.82474933100008],[135.99345406400005,35.88514211700004],[135.99438018900003,35.93591278200006],[135.95728600400003,35.97313060100004],[136.04361081500008,36.11083253800007],[136.13484480500006,36.22455239400006],[136.12417327600008,36.25317933200006],[136.1967378060001,36.26436216400003],[136.4301863940001,36.432521877000056],[136.63996143100007,36.662600574000066],[136.68968479300008,36.73082693100008],[136.76055452600008,36.870599361000075],[136.76761331400007,36.98099874800005],[136.71841293800003,37.076261489000046],[136.72673587300005,37.126613674000055],[136.67644378300008,37.13740149600005],[136.67447257100002,37.17547192100005],[136.73321719800003,37.28501484600008],[136.749094194,37.357917400000076],[136.842170667,37.39953277200004],[136.934766136,37.39945701800008],[137.11384056300005,37.487746918000084],[137.29570988800003,37.53149016500004],[137.350873771,37.50610344200004],[137.35120513000004,37.44567560400009],[137.2536012390001,37.42910590200006],[137.237363609,37.37988162000005],[137.267485534,37.35508577600007],[137.23023522200003,37.29214101800005],[137.10872138900004,37.28344965100007],[137.070666716,37.218643978000046],[137.0141707690001,37.184881903000075],[136.93043053500003,37.22162506700005],[136.880215453,37.144152871000074],[136.87468509200005,37.069647528000075],[136.9336043630001,37.07982005400004],[137.003991628,37.055457543000045],[137.05396569100003,37.07982005400004],[137.05444619900004,36.966749864000064],[136.987741561,36.87102163700007],[137.00554446700005,36.835923570000034],[137.15699303500003,36.76080963700008],[137.33334435900008,36.762726067000074],[137.3836057960001,36.80014545500006],[137.42710766900007,36.92201115800009],[137.4993469650001,36.95574161700006],[137.68327884200005,36.987982489000046],[137.89673912900003,37.057521877000056],[138.05339603000004,37.130113023000035],[138.0975018040001,37.17105935200004],[138.16443255600007,37.16169930800004],[138.24489497900004,37.18378944500006],[138.32510269600004,37.23104347200007],[138.437515909,37.32203684800004],[138.55062910200002,37.37791575700004],[138.6597345780001,37.52443260400008],[138.71827233200008,37.56484609600005],[138.7656356130001,37.63467031500005],[138.8094257350001,37.76077187900006],[138.85767662900003,37.827826239000046],[139.05988081300006,37.94594167000008],[139.21594314100003,37.98993395400004],[139.30453535200002,38.04193756700005],[139.43238366000003,38.169134833000044],[139.46216881600003,38.374986070000034],[139.5992151490001,38.648254087000055],[139.716156446,38.74567291900007],[139.77384433300006,38.817116774000056],[139.891937696,39.13320547100005],[139.90358143900005,39.22493941100004],[139.93181044000005,39.287111834000086],[139.99531019000005,39.32732856000007],[140.04857715000003,39.50466964600008],[140.05929588100003,39.72749224900008],[140.02759850400003,39.82453034100007],[139.96648196700005,39.880072333000044],[139.8774520190001,39.89280833500004],[139.8437606130001,39.861761786000045],[139.760101759,39.85805898600006],[139.70866946700005,39.924261786000045],[139.700639313,40.00563611200005],[139.82211347700002,39.96108633000006],[139.90419316100008,40.01769512100009],[139.97803795700008,40.12547435100004],[140.01115209900001,40.23545842000004],[140.0242629610001,40.355016067000065],[139.94605553500003,40.418850002000056],[139.94278633300007,40.54458555800005],[139.91515451300006,40.58617340700005],[139.856781446,40.59015534100007],[139.95954043000006,40.67769251500005],[139.99815616500007,40.742104090000055],[140.04597727600003,40.76777008700009],[140.1076180130001,40.74407301800005],[140.1980380870001,40.78645254300005],[140.240570509,40.78351471600007],[140.29664147200003,40.87376536700003],[140.3219215580001,41.02744519700008],[140.36959444000001,40.98605469100005],[140.39898677500003,41.03937203000004],[140.32395648300007,41.04528458400006],[140.3001619810001,41.11127729200007],[140.34228304300007,41.26573129800005],[140.43580162900003,41.198146877000056],[140.48367398100004,41.18346812600004],[140.52475613000001,41.21997640700005],[140.59390699100004,41.22017794000004],[140.64266573200007,41.17137914700004],[140.63152103000004,41.093085028000075],[140.67302493600005,40.89557526200008],[140.7031216700001,40.85329202300005],[140.79922346800004,40.83908125100004],[140.8707263990001,40.915135476000046],[140.88233210700002,41.007822022000084],[140.94870251300006,40.99074773500007],[140.97506573300006,40.937755320000065],[141.06807564200005,40.91084813100008],[141.11134557100002,40.87263328600005],[141.18524863300001,40.91121452900006],[141.23640716500006,41.01572156100008],[141.25234706100002,41.11875852600008],[141.277882083,41.155329909000045],[141.235466901,41.23797276500005],[141.1612324580001,41.27846726200005],[141.14683011300008,41.236288570000056],[141.05807571800005,41.183068125000034],[140.977561863,41.19647781500004],[140.86273009800004,41.16412311100004],[140.81452501500007,41.128461806000075],[140.76579604300002,41.14501873900008],[140.76555366700006,41.19595586000008],[140.83695137100005,41.41822188600008],[140.90710228800003,41.50079851500004],[140.913572359,41.54685719300005],[140.97805707600003,41.49765904100008],[141.10775040700003,41.46386893600004],[141.19499759200005,41.387152411000045],[141.276095682,41.35319552800007],[141.38216087800004,41.37259958300007],[141.46057858100005,41.43022317800006],[141.39081676700005,41.16101119700005],[141.38630694100004,41.03036180100008],[141.4055534050001,40.816822863000084],[141.43738666000002,40.67014093100005],[141.470398091,40.59341807100009],[141.5196960080001,40.537986372000034],[141.57554958600008,40.542279059000066],[141.74377693500003,40.38392223200009],[141.84197024800005,40.225775458000044],[141.813324415,40.183579820000034],[141.87720787900003,40.13930898600006],[141.83757571700005,40.09454987200007],[141.85499108200008,40.05499909100007],[141.949554884,39.99656810100004],[141.942230665,39.92450592700004],[141.97185306100005,39.88300202000005],[142.0087996750001,39.75275299700007],[141.98389733200008,39.70697663000004],[141.96631920700008,39.59845612200007],[142.0361434250001,39.63898346600007],[142.03077233200008,39.58417389500005],[142.0693465500001,39.54047272300005],[141.95297285200002,39.46076080900008],[141.99626712300005,39.44525788000004],[142.03638756600003,39.48379140800006],[142.031586134,39.417303778000075],[141.9809676440001,39.41242096600007],[141.9052840500001,39.33047109600005],[141.9809676440001,39.35097890800006],[141.914886915,39.29486725500004],[141.89909915500004,39.24852122600004],[141.94703209700003,39.249701239000046],[141.9262801440001,39.18707916900007],[141.8437606130001,39.152329820000034],[141.90886478000004,39.10976797100005],[141.81714928500003,39.09088776200008],[141.84742272200003,39.02195872600004],[141.72820071700005,39.02171458500004],[141.717133009,38.94684479400007],[141.63835696700005,38.98541901200008],[141.67359459700003,38.85195547100005],[141.6367293630001,38.89109935100004],[141.58855228000004,38.88222890800006],[141.58936608200008,38.82607656500005],[141.52165774800005,38.76813385600008],[141.572601759,38.71865469000005],[141.46306399800005,38.661363023000035],[141.5322371750001,38.63841380400004],[141.46705162900003,38.569525458000044],[141.54761803500003,38.51862213700008],[141.51482181100005,38.50804271000004],[141.47144616000003,38.43573639500005],[141.54281660200002,38.30263906500005],[141.5254012380001,38.26780833500004],[141.42554772200003,38.34357330900008],[141.43970787900003,38.371527411000045],[141.33318118600005,38.40900299700007],[141.18091881600003,38.371161200000074],[141.15211022200003,38.32306549700007],[141.09782962300005,38.371527411000045],[141.04867597700002,38.309475002000056],[141.0805770190001,38.294907945000034],[141.01734459700003,38.24485911700009],[140.9668074880001,38.17047760600008],[140.9257918630001,38.04938385600008],[140.93336022200003,37.88922760600008],[141.02222741000003,37.72695547100005],[141.04184004,37.37714264500005],[141.0078231130001,37.22675202000005],[141.0078231130001,37.13385651200008],[140.960297071,36.96621328300006],[140.80437259200005,36.885972398000035],[140.74187259200005,36.768459377000056],[140.6938582690001,36.61798737200007],[140.6235457690001,36.50608958500004],[140.61687259200005,36.33779531500005],[140.5641073710001,36.28309580200005],[140.57837975400003,36.16095612200007],[140.646034105,36.013320444000044],[140.84164472700002,35.74241771000004],[140.8794051440001,35.72052643400008],[140.72078890300008,35.68251721100006],[140.6610564560001,35.68863497800004],[140.4834674970001,35.56599105500004],[140.42321951300005,35.49064438000005],[140.38591856900007,35.380998573000056],[140.4130965500001,35.301214911000045],[140.39419527500002,35.19659166200006],[140.23738075200004,35.11242952500004],[140.134602814,35.12264536400005],[140.10080523400006,35.07575134500007],[139.99096763300008,35.02050211200009],[139.9621388810001,34.940850503000036],[139.9263958460001,34.90735665200009],[139.843099617,34.89998186000008],[139.75277736500004,34.97580871200006],[139.85865319100003,34.98680247600004],[139.82460882400005,35.199063900000056],[139.86515060700003,35.22409896400006],[139.84933413400006,35.29355360000005],[139.78215300800002,35.31417710000005],[139.84477673600009,35.37620508400005],[139.8927430760001,35.36418368900007],[139.900121044,35.42310445500004],[140.005859289,35.47342712000005],[140.07188712900006,35.542856802000074],[140.07960045700008,35.603583075000074],[140.008949863,35.659759819000044],[139.95041397400007,35.67259201500008],[139.89716783000006,35.614373758000056],[139.7581622360001,35.63156424200008],[139.79905634500005,35.54001012800006],[139.77857506600003,35.50185781500005],[139.68054456100003,35.43838609900007],[139.648358142,35.297890507000034],[139.7342280480001,35.26520292300006],[139.7280246570001,35.20708410000009],[139.660589416,35.17823249200006],[139.68506920700008,35.14044830900008],[139.6114520120001,35.141972689000056],[139.62395895200007,35.211617096000055],[139.5441777970001,35.30789279800007],[139.4148557200001,35.318814659000054],[139.23336693300007,35.28532441900006],[139.145957437,35.235226985000054],[139.15805097700002,35.13646067900004],[139.12077055300006,35.15025745000008],[139.07587403600007,35.05317728600005],[139.08654809100005,34.99730546900008],[139.13070722700002,34.96515534100007],[139.14087975400003,34.87055084800005],[139.0883895190001,34.84227122600004],[138.99875872200005,34.73328434200005],[138.99366295700008,34.64984772300005],[138.9408259810001,34.661107187000084],[138.835297071,34.59589264500005],[138.7713901310001,34.64731395300004],[138.74400124200008,34.72889189500006],[138.774261915,34.751288153000075],[138.74812686400003,34.81320925300008],[138.753838793,34.87946727500008],[138.78980553500003,34.90680573100008],[138.7618935590001,34.97990260500006],[138.78608990100008,35.026438762000055],[138.907562696,35.03066640800006],[138.8033316850001,35.121909308000056],[138.69618557600006,35.13897567500004],[138.55408217500008,35.096069379000085],[138.49788298200008,35.03256950200006],[138.51429303400005,34.98017780400005],[138.367107895,34.917309439000064],[138.32829837300005,34.85529205900008],[138.3408309250001,34.82648346600007],[138.29322798300007,34.76577441500007],[138.21598919100006,34.712282661000074],[138.19361412900003,34.641506252000056],[138.23328976100004,34.59458877000009],[138.04723701,34.65463981500005],[137.8927975680001,34.667696567000064],[137.79216556100005,34.63939036700009],[137.68350648400008,34.67075459900008],[137.54699814000003,34.67728852500005],[137.4275572790001,34.66774579100007],[137.14072680900006,34.589289111000085],[137.01609532100008,34.578784710000036],[137.07283016600002,34.664599003000035],[137.11085045700008,34.625433661000045],[137.29822593400002,34.728215300000045],[137.32431631200006,34.766844656000046],[137.22282679300008,34.81626329100004],[137.1714708070001,34.78404980300007],[137.01824785300005,34.78328903500005],[136.9582313730001,34.83235218500005],[136.978851759,34.92422109600005],[136.9384871750001,34.860988674000055],[136.9155640360001,34.77596001200004],[136.9714965940001,34.69641132500004],[136.8559676440001,34.73981354400007],[136.8647340120001,34.821545090000086],[136.82772581000006,34.87194149700008],[136.82346477800002,34.95485542300008],[136.87985931700007,35.04383685700009],[136.7255965500001,35.02724844000005],[136.6591903000001,34.98395416900007],[136.661666836,34.940504575000034],[136.61611454500007,34.85350057100004],[136.53493993900008,34.765695099000084],[136.5195418630001,34.680853583000044],[136.5400496750001,34.61570872600004],[136.63298587300005,34.591131903000075],[136.752289259,34.513332424000055],[136.85230553500003,34.485541083000044],[136.9160262380001,34.43398672100005],[136.91675866000003,34.376166083000044],[136.8833113940001,34.32831452000005],[136.90023847700002,34.282538153000075],[136.83545983200008,34.24640534100007],[136.85621178500003,34.294175523000035],[136.80746504,34.307847398000035],[136.70264733200008,34.29515208500004],[136.72339928500003,34.331284898000035],[136.64991295700008,34.314113674000055],[136.6547957690001,34.286037502000056],[136.51482181100005,34.229803778000075],[136.4716903000001,34.23895905200004],[136.29900149800005,34.154282945000034],[136.3134871750001,34.094956773000035],[136.25269616000003,34.108587958000044],[136.21851647200003,34.067613023000035],[136.2797957690001,34.01732005400004],[136.27320397200003,33.97142161700009],[136.23218834700003,33.99315013200004],[136.19890384200005,33.92088450700004],[136.1047442250001,33.89141140000004],[136.06931712800008,33.84704388300008],[135.98072350400003,33.65298086100006],[135.937066684,33.61747297900007],[135.95987107500002,33.59308822500009],[135.8847762380001,33.528998114000046],[135.82806328700008,33.513648259000036],[135.76002037900003,33.43333567900004],[135.7655706070001,33.48154548800005],[135.637543165,33.49461497600004],[135.44483483200008,33.550848700000074],[135.387324143,33.594067317000054],[135.38070722700002,33.63711172100005],[135.3276951260001,33.67119293500008],[135.4023543630001,33.70111725500004],[135.312102234,33.76552878400008],[135.23258264800006,33.781998007000084],[135.15275760100008,33.875854179000044],[135.06545384900005,33.88557181900006],[135.1012224010001,33.954437547000055],[135.07573725100008,33.97748793800008],[135.153168165,34.009751695000034],[135.16277103000004,34.03974030200004],[135.09449303500003,34.067613023000035],[135.13062584700003,34.122381903000075],[135.18702233200008,34.135931708000044],[135.13542728000004,34.22768789300005],[135.06104364700002,34.267274919000045],[135.105030715,34.31811688100004],[135.20898538000006,34.34227764500008],[135.31968984900004,34.428758197000036],[135.41437915100005,34.55812547000005],[135.403590677,34.65891218200005],[135.3412673680001,34.708509605000074],[135.22006657000009,34.69077377000008],[135.24234854000008,34.650751996000054],[135.04576878800003,34.624966887000085],[134.960297071,34.64362213700008],[134.74439537900003,34.76654694200005],[134.6962996750001,34.77619049700007],[134.49586022200003,34.764553127000056],[134.43140709700003,34.730454820000034],[134.3813582690001,34.73981354400007],[134.1552840500001,34.63686758000006],[134.14795983200008,34.596991278000075],[134.08366946700005,34.58152903900009],[133.97925866000003,34.605902411000045],[133.94255618600005,34.555121161000045],[134.01929772200003,34.59682851800005],[134.04566491000003,34.56391022300005],[133.98316491000003,34.528631903000075],[133.93628991000003,34.451239325000074],[133.82178795700008,34.462144273000035],[133.69996178500003,34.52594635600008],[133.470062696,34.42397695500006],[133.5224715500001,34.48305898600006],[133.41911868600005,34.46792226800005],[133.422211134,34.445013739000046]],[[145.76742597700002,43.38727448100008],[145.82496178500003,43.37360260600008],[145.6840926440001,43.310248114000046],[145.62916100400003,43.309759833000044],[145.57984459700003,43.26504140800006],[145.518890821,43.166449286000045],[145.45240319100003,43.18390534100007],[145.30250084700003,43.173488674000055],[145.23113040500004,43.14109935100004],[145.1254988940001,43.12006256700005],[145.16822350400003,43.079413153000075],[145.0512801440001,43.03310781500005],[145.00017337300005,42.98615143400008],[144.86882571700005,42.98847077000005],[144.840179884,43.04010651200008],[144.75757897200003,43.018784898000035],[144.74195397200003,42.92422109600005],[144.59913170700008,42.94912344000005],[144.49586022200003,42.933254299000055],[144.3906356130001,42.95644765800006],[144.35808353000004,42.99945709800005],[144.18311608200008,42.97638580900008],[144.0420028000001,42.92658112200007],[143.88640384200005,42.844183661000045],[143.79029381600003,42.75726959800005],[143.63884524800005,42.66107819200005],[143.5752059250001,42.60333893400008],[143.44809004,42.45502350500004],[143.348968946,42.31915924700007],[143.32488040500004,42.229722398000035],[143.3379012380001,42.15021393400008],[143.292328321,42.005194403000075],[143.22608483200008,41.93227773600006],[143.1152449880001,42.02798086100006],[142.95972741000003,42.10537344000005],[142.75766035200002,42.15839264500005],[142.54639733200008,42.25055573100008],[142.4599715500001,42.27130768400008],[142.28101647200003,42.366522528000075],[142.16775167700007,42.45985850800008],[142.06258038500005,42.47072827200009],[141.92595462300005,42.558579820000034],[141.72608483200008,42.617173570000034],[141.54957116000003,42.60114166900007],[141.4277449880001,42.56439850500004],[141.26246178500003,42.46824778900009],[141.09156334700003,42.391791083000044],[140.97730553500003,42.29962799700007],[140.9316512380001,42.32876211100006],[140.9868270190001,42.339829820000034],[140.9121199880001,42.380560614000046],[140.9013778000001,42.42084381700005],[140.73365319100003,42.564154364000046],[140.68628991000003,42.57916901200008],[140.52564537900003,42.58063385600008],[140.4575301440001,42.56427643400008],[140.3808699880001,42.505072333000044],[140.32545006600003,42.432806708000044],[140.28858483200008,42.35016510600008],[140.29175866000003,42.25958893400008],[140.42408287900003,42.192287502000056],[140.5488387380001,42.105536200000074],[140.71355228000004,42.13349030200004],[140.77361087300005,42.10219961100006],[140.83708743600005,42.02362702000005],[140.97429446700005,41.913763739000046],[141.08326256600003,41.88263580900008],[141.18279056100005,41.81830475500004],[141.1899520190001,41.79092031500005],[141.1040145190001,41.770412502000056],[141.0063582690001,41.712144273000035],[140.87427819100003,41.758246161000045],[140.77507571700005,41.770412502000056],[140.7080184250001,41.74555084800005],[140.7334090500001,41.79364655200004],[140.7089949880001,41.82440827000005],[140.6416121750001,41.81509023600006],[140.60425866000003,41.73627350500004],[140.45289147200003,41.68105703300006],[140.43327884200005,41.64468008000006],[140.44320722700002,41.563706773000035],[140.40064537900003,41.513006903000075],[140.27466881600003,41.48236725500004],[140.2089949880001,41.40110911700003],[140.10035241000003,41.41351959800005],[140.03825931100005,41.442572333000044],[139.98365319100003,41.56049225500004],[140.0195418630001,41.696966864000046],[140.08741295700008,41.805121161000045],[140.129730665,41.82322825700004],[140.151703321,41.913763739000046],[140.1450301440001,41.98265208500004],[140.02759850400003,42.105536200000074],[139.92750084700003,42.13890208500004],[139.883636915,42.194973049000055],[139.787445509,42.24677155200004],[139.7675887380001,42.310980536000045],[139.8496199880001,42.46930573100008],[139.83277428500003,42.58881256700005],[139.8769637380001,42.663397528000075],[140.05388431100005,42.69415924700007],[140.13591556100005,42.74713776200008],[140.18336022200003,42.810207424000055],[140.2607528000001,42.760972398000035],[140.3032332690001,42.76972077000005],[140.31177819100003,42.81598541900007],[140.37712649800005,42.893784898000035],[140.50318444100003,42.98004791900007],[140.52711022200003,43.01544830900008],[140.43921959700003,43.134019273000035],[140.33806399800005,43.21051666900007],[140.32935631600003,43.25071849200003],[140.36011803500003,43.32518138200004],[140.45289147200003,43.33885325700004],[140.48715254,43.372381903000075],[140.62094160200002,43.301214911000045],[140.68921959700003,43.24835846600007],[140.809906446,43.19245026200008],[141.02230879,43.22378164300005],[141.0219832690001,43.174994208000044],[141.16911868600005,43.14085521000004],[141.2275496750001,43.15448639500005],[141.37086022200003,43.25071849200003],[141.44011478000004,43.36172109600005],[141.42701256600003,43.43455638200004],[141.37086022200003,43.49713776200008],[141.39136803500003,43.57908763200004],[141.33741295700008,43.71283600500004],[141.38502037900003,43.79132721600007],[141.528168165,43.84121328300006],[141.6406356130001,43.937933661000045],[141.67017662900003,44.06663646000004],[141.65544681100005,44.27692291900007],[141.74724368600005,44.42422109600005],[141.79175866000003,44.596991278000075],[141.78345787900003,44.76536692900004],[141.72185306100005,44.955145575000074],[141.5864363940001,45.16437409100007],[141.58375084700003,45.251166083000044],[141.64918053500003,45.341009833000044],[141.63941491000003,45.421128648000035],[141.66570071700005,45.450425523000035],[141.69214928500003,45.40228913000004],[141.8232528000001,45.42255280200004],[141.875336134,45.44818756700005],[141.91944420700008,45.51585521000004],[141.96045983200008,45.51023997600004],[142.0566512380001,45.402044989000046],[142.2212020190001,45.29962799700007],[142.53931725400003,45.018459377000056],[142.63070722700002,44.88373444200005],[142.71404056100005,44.80621979400007],[142.9814559250001,44.58649323100008],[143.11841881600003,44.49689362200007],[143.35141035200002,44.38104889500005],[143.4052840500001,44.31745026200008],[143.55241946700005,44.25250885600008],[143.77662194100003,44.18927643400008],[143.68043053500003,44.18235911700003],[143.72828209700003,44.11347077000005],[143.9296981130001,44.098944403000075],[143.99919681100005,44.133978583000044],[144.11931399800005,44.12905508000006],[144.17172285200002,44.10602448100008],[144.1054793630001,44.03156159100007],[144.1670028000001,44.025376695000034],[144.21509850400003,44.11147695500006],[144.31861412900003,43.99119700700004],[144.43043053500003,43.942572333000044],[144.74048912900003,43.91461823100008],[144.83122806100005,43.94220612200007],[145.04851321700005,44.12213776200008],[145.2016707690001,44.20579661700003],[145.25025475400003,44.27179596600007],[145.34148196700005,44.34552643400008],[145.3730574880001,44.292222398000035],[145.34986412900003,44.21161530200004],[145.29053795700008,44.15448639500005],[145.26042728000004,44.06940338700008],[145.16960696700005,43.98529694200005],[145.10613040500004,43.88076406500005],[145.0747176440001,43.75372955900008],[145.11597741000003,43.686835028000075],[145.19483483200008,43.62067291900007],[145.24683678500003,43.530462958000044],[145.29078209700003,43.40534088700008],[145.361664259,43.30145905200004],[145.2700301440001,43.34638092700004],[145.26449629,43.31671784100007],[145.321625196,43.276271877000056],[145.46843509200005,43.25299713700008],[145.59489993600005,43.34284088700008],[145.67595462300005,43.38198476800005],[145.76742597700002,43.38727448100008]],[[123.81470787900003,24.391750393000052],[123.93441816500001,24.36749909100007],[123.87305748800009,24.258246161000045],[123.68344160200002,24.285305080000057],[123.68376712300005,24.323472398000035],[123.74805748800009,24.32957591400009],[123.769867384,24.418361721000053],[123.81470787900003,24.391750393000052]],[[123.00261478000004,24.474310614000046],[122.998383009,24.439520575000074],[122.93864993600005,24.444240627000056],[123.00261478000004,24.474310614000046]],[[124.32911217500009,24.58356354400007],[124.27393639400009,24.487941799000055],[124.24187259200005,24.363714911000045],[124.21192467500009,24.337103583000044],[124.14031009200005,24.34198639500005],[124.14307701900009,24.384914455000057],[124.08863366000003,24.421942450000074],[124.11622155000009,24.46747467700004],[124.21192467500009,24.446966864000046],[124.32911217500009,24.58356354400007]],[[125.38721764400009,24.782171942000048],[125.45264733200008,24.744940497000073],[125.38379967500009,24.726955471000053],[125.25879967500009,24.73338450700004],[125.28516686300009,24.877346096000053],[125.32667076900009,24.81073639500005],[125.38721764400009,24.782171942000048]],[[126.81006920700008,26.35187409100007],[126.78239993600005,26.304510809000078],[126.69776451900009,26.36904531500005],[126.75212649800005,26.390692450000074],[126.81006920700008,26.35187409100007]],[[128.33765709700003,26.796942450000074],[128.33765709700003,26.76430898600006],[128.24333743600005,26.633286851000037],[128.172211134,26.623480536000045],[128.14177493600005,26.556586005000042],[128.05591881600003,26.550482489000046],[127.94027754000001,26.447739976000037],[127.83887780000009,26.42523834800005],[127.91993248800009,26.30963776200008],[127.84083092500009,26.323919989000046],[127.77751712300005,26.233343817000048],[127.77540123800009,26.18512604400007],[127.82357832100001,26.186753648000035],[127.79688561300009,26.13971588700008],[127.72535241000003,26.089585679000038],[127.65170332100001,26.084377346000053],[127.63819420700008,26.21474844000005],[127.67774498800009,26.230617580000057],[127.74187259200005,26.32054271000004],[127.73129316500001,26.439886786000045],[127.80518639400009,26.44757721600007],[127.83057701900009,26.488430080000057],[127.93751061300009,26.532131252000056],[127.95590254000001,26.59479401200008],[127.89429772200003,26.60927969000005],[127.88542728000004,26.696112372000073],[128.00123131600003,26.680243231000077],[128.01490319100003,26.634833075000074],[128.11109459700003,26.67401764500005],[128.1113387380001,26.70343659100007],[128.225922071,26.80097077000005],[128.25505618600005,26.88629791900007],[128.33765709700003,26.796942450000074]],[[128.70069420700008,27.454820054000038],[128.63070722700002,27.37567780200004],[128.57447350400003,27.353338934000078],[128.52686608200008,27.371893622000073],[128.53386478000004,27.415269273000035],[128.61882571700005,27.41559479400007],[128.70069420700008,27.454820054000038]],[[128.9887801440001,27.811102606000077],[129.024261915,27.75657786700009],[128.96070397200003,27.68577708500004],[128.8945418630001,27.728216864000046],[128.8789168630001,27.824774481000077],[128.8945418630001,27.89130280200004],[128.94703209700003,27.914129950000074],[128.9887801440001,27.811102606000077]],[[129.29664147200003,28.119574286000045],[129.35043379,28.086493231000077],[129.218109571,28.10610586100006],[129.18083743600005,28.190252997000073],[129.26929772200003,28.17487213700008],[129.29664147200003,28.119574286000045]],[[130.0302840500001,28.373480536000045],[129.995453321,28.29092031500005],[129.91358483200008,28.29710521000004],[130.0302840500001,28.373480536000045]],[[129.7075301440001,28.462144273000035],[129.71599368600005,28.42914459800005],[129.61931399800005,28.400783596000053],[129.55396569100003,28.32843659100007],[129.42017662900003,28.249945380000042],[129.46794681100005,28.215765692000048],[129.3711043630001,28.167222398000035],[129.3657332690001,28.123195705000057],[129.24244225400003,28.21430084800005],[129.14576256600003,28.25617096600007],[129.270843946,28.25535716400009],[129.290375196,28.284084377000056],[129.22771243600005,28.30459219000005],[129.33130944100003,28.366034247000073],[129.39958743600005,28.37173086100006],[129.47535241000003,28.42129140800006],[129.51636803500003,28.39329661700009],[129.53345787900003,28.430487372000073],[129.62623131600003,28.48273346600007],[129.64405358200008,28.43976471600007],[129.68775475400003,28.508978583000044],[129.7075301440001,28.462144273000035]],[[129.7148543630001,29.65452708500004],[129.7148543630001,29.65452708500004]],[[129.8935653000001,29.874741929000038],[129.9204207690001,29.819647528000075],[129.86340189200007,29.82460653000004],[129.83277226500002,29.873077651000074],[129.8935653000001,29.874741929000038]],[[127.80982506600003,26.73541901200008],[127.80982506600003,26.73541901200008]],[[127.99537194100003,27.091742255000042],[127.99537194100003,27.091742255000042]],[[127.22217858200008,26.598944403000075],[127.22217858200008,26.598944403000075]],[[128.45435631600003,27.04751211100006],[128.45435631600003,27.04751211100006]],[[128.23658287900003,27.866522528000075],[128.23658287900003,27.866522528000075]],[[129.59156334700003,29.450100002000056],[129.59156334700003,29.450100002000056]],[[129.527679884,29.902329820000034],[129.527679884,29.902329820000034]],[[129.943695509,29.965277411000045],[129.943695509,29.965277411000045]],[[125.20289147200003,24.846258856000077],[125.20525149800005,24.80499909100007],[125.15064537900003,24.804348049000055],[125.16358483200008,24.854641018000052],[125.20289147200003,24.846258856000077]],[[127.36963951900009,26.214585679000038],[127.36963951900009,26.214585679000038]],[[123.60629316500012,25.738999742000146],[123.60629316500012,25.738999742000146]],[[123.54533938900022,25.76178620000013],[123.54533938900022,25.76178620000013]],[[123.67302493600016,25.928697006999982],[123.67302493600016,25.928697006999982]],[[141.357758009,24.789618231000077],[141.2895613940001,24.726955471000053],[141.29948978000004,24.78587474200009],[141.357758009,24.789618231000077]],[[141.45297285200002,24.222398179000038],[141.45297285200002,24.222398179000038]],[[141.287445509,25.417710679000038],[141.287445509,25.417710679000038]],[[142.19320722700002,26.64606354400007],[142.1801863940001,26.618801174000055],[142.1113387380001,26.721177476000037],[142.16586347700002,26.701320705000057],[142.19320722700002,26.64606354400007]],[[142.19320722700002,27.091742255000042],[142.24105879,27.08429596600007],[142.21851647200003,27.040350653000075],[142.19320722700002,27.091742255000042]],[[142.18921959700003,27.14549388200004],[142.18921959700003,27.14549388200004]],[[142.1953231130001,27.59910716400009],[142.1953231130001,27.59910716400009]],[[142.0805770190001,27.716945705000057],[142.0805770190001,27.716945705000057]],[[142.10515384200005,27.727036851000037],[142.10515384200005,27.727036851000037]],[[139.7910262380001,33.13532135600008],[139.8774520190001,33.087591864000046],[139.84522545700008,33.04677969000005],[139.7876082690001,33.05841705900008],[139.73975670700008,33.133246161000045],[139.7910262380001,33.13532135600008]],[[139.48707116000003,34.06077708500004],[139.55632571700005,34.11347077000005],[139.56128991000003,34.05809153900009],[139.48707116000003,34.06077708500004]],[[139.270355665,34.39598216400009],[139.30095462300005,34.41791413000004],[139.26783287900003,34.322699286000045],[139.270355665,34.39598216400009]],[[139.41822350400003,34.78082916900007],[139.45671634200005,34.73712799700007],[139.45378665500004,34.678941148000035],[139.3593528460001,34.70229865300007],[139.35646512200003,34.79722949200004],[139.41822350400003,34.78082916900007]],[[139.7563582690001,32.45229726800005],[139.7563582690001,32.45229726800005]],[[139.29908287900003,33.650091864000046],[139.29908287900003,33.650091864000046]],[[139.62281334700003,33.88556549700007],[139.62281334700003,33.88556549700007]]]}
